{
  "type": "FeatureCollection",
  "features": [
    {
      "type": "Feature",
      "properties": {
        "norad_id": 19071,
        "name": "OSCAR 32",
        "group": "nnss",
        "lat": -30.28829869562723,
        "lon": 17.080293838952343,
        "alt_km": 1297.315152455095,
        "timestamp": "2025-12-24T14:43:29.270254+00:00",
        "meta_object_name": "OSCAR 32",
        "meta_object_id": "1988-033B",
        "meta_epoch": "2025-12-24T07:42:13.754592",
        "meta_mean_motion": 13.27955652,
        "meta_eccentricity": 0.01891926,
        "meta_inclination": 90.3208,
        "meta_ra_of_asc_node": 16.8837,
        "meta_arg_of_pericenter": 134.7211,
        "meta_mean_anomaly": 237.9771,
        "meta_ephemeris_type": 0,
        "meta_classification_type": "U",
        "meta_norad_cat_id": 19071,
        "meta_element_set_no": 999,
        "meta_rev_at_epoch": 82419,
        "meta_bstar": 8.5937937e-05,
        "meta_mean_motion_dot": 5.3e-07,
        "meta_mean_motion_ddot": 0,
        "tle_line1": "1 19071U 88033B   25358.32099253  .00000053  00000+0  85938-4 0  9990",
        "tle_line2": "2 19071  90.3208  16.8837 0189192 134.7211 237.9771 13.27955652824199"
      },
      "geometry": {
        "type": "Point",
        "coordinates": [
          17.080293838952343,
          -30.28829869562723
        ]
      }
    },
    {
      "type": "Feature",
      "properties": {
        "norad_id": 19223,
        "name": "NOVA 2",
        "group": "nnss",
        "lat": -46.82049131416268,
        "lon": 78.24303400555331,
        "alt_km": 1161.1134549172875,
        "timestamp": "2025-12-24T14:43:29.270265+00:00",
        "meta_object_name": "NOVA 2",
        "meta_object_id": "1988-052A",
        "meta_epoch": "2025-12-24T04:21:39.409632",
        "meta_mean_motion": 13.22937071,
        "meta_eccentricity": 0.00296053,
        "meta_inclination": 89.9864,
        "meta_ra_of_asc_node": 78.2581,
        "meta_arg_of_pericenter": 345.217,
        "meta_mean_anomaly": 72.8014,
        "meta_ephemeris_type": 0,
        "meta_classification_type": "U",
        "meta_norad_cat_id": 19223,
        "meta_element_set_no": 999,
        "meta_rev_at_epoch": 81099,
        "meta_bstar": 0.00018842165,
        "meta_mean_motion_dot": 8.8e-07,
        "meta_mean_motion_ddot": 0,
        "tle_line1": "1 19223U 88052A   25358.18170613  .00000088  00000+0  18842-3 0  9991",
        "tle_line2": "2 19223  89.9864  78.2581 0029605 345.2170  72.8014 13.22937071810992"
      },
      "geometry": {
        "type": "Point",
        "coordinates": [
          78.24303400555331,
          -46.82049131416268
        ]
      }
    },
    {
      "type": "Feature",
      "properties": {
        "norad_id": 19419,
        "name": "OSCAR 25",
        "group": "nnss",
        "lat": 30.818064582705443,
        "lon": -159.69729332140298,
        "alt_km": 1064.4027450035355,
        "timestamp": "2025-12-24T14:43:29.270275+00:00",
        "meta_object_name": "OSCAR 25",
        "meta_object_id": "1988-074A",
        "meta_epoch": "2025-12-24T03:35:44.716704",
        "meta_mean_motion": 13.4262537,
        "meta_eccentricity": 0.00951302,
        "meta_inclination": 90.0336,
        "meta_ra_of_asc_node": 20.2811,
        "meta_arg_of_pericenter": 212.8485,
        "meta_mean_anomaly": 217.2062,
        "meta_ephemeris_type": 0,
        "meta_classification_type": "U",
        "meta_norad_cat_id": 19419,
        "meta_element_set_no": 999,
        "meta_rev_at_epoch": 82793,
        "meta_bstar": 0.00013049821,
        "meta_mean_motion_dot": 8.5e-07,
        "meta_mean_motion_ddot": 0,
        "tle_line1": "1 19419U 88074A   25358.14982311  .00000085  00000+0  13050-3 0  9997",
        "tle_line2": "2 19419  90.0336  20.2811 0095130 212.8485 217.2062 13.42625370827931"
      },
      "geometry": {
        "type": "Point",
        "coordinates": [
          -159.69729332140298,
          30.818064582705443
        ]
      }
    },
    {
      "type": "Feature",
      "properties": {
        "norad_id": 19420,
        "name": "OSCAR 31",
        "group": "nnss",
        "lat": 31.954128390068266,
        "lon": 20.612423035642887,
        "alt_km": 1167.320580623098,
        "timestamp": "2025-12-24T14:43:29.270285+00:00",
        "meta_object_name": "OSCAR 31",
        "meta_object_id": "1988-074B",
        "meta_epoch": "2025-12-24T02:20:50.517024",
        "meta_mean_motion": 13.42586465,
        "meta_eccentricity": 0.00935135,
        "meta_inclination": 90.0354,
        "meta_ra_of_asc_node": 20.6327,
        "meta_arg_of_pericenter": 207.1456,
        "meta_mean_anomaly": 213.8261,
        "meta_ephemeris_type": 0,
        "meta_classification_type": "U",
        "meta_norad_cat_id": 19420,
        "meta_element_set_no": 999,
        "meta_rev_at_epoch": 82803,
        "meta_bstar": 0.00010999999,
        "meta_mean_motion_dot": 7.3e-07,
        "meta_mean_motion_ddot": 0,
        "tle_line1": "1 19420U 88074B   25358.09780691  .00000073  00000+0  11000-3 0  9990",
        "tle_line2": "2 19420  90.0354  20.6327 0093513 207.1456 213.8261 13.42586465828033"
      },
      "geometry": {
        "type": "Point",
        "coordinates": [
          20.612423035642887,
          31.954128390068266
        ]
      }
    }
  ]
}